[{"Id":1,"CompanyName":"company1","Address":{"Street":"test","City":"test","State":"test","Zip":"test"}},{"Id":2,"CompanyName":"company1","Address":{"Street":"test","City":"test","State":"test","Zip":"test"}},{"Id":3,"CompanyName":"company1","Address":{"Street":"test","City":"test","State":"test","Zip":"test"}},{"Id":4,"CompanyName":"company1","Address":{"Street":"test","City":"test","State":"test","Zip":"test"}},{"Id":5,"CompanyName":"company1","Address":{"Street":"test","City":"test","State":"test","Zip":"test"}},{"Id":6,"CompanyName":"company1","Address":{"Street":"test","City":"test","State":"test","Zip":"test"}},{"Id":7,"CompanyName":"company1","Address":{"Street":"test","City":"test","State":"test","Zip":"test"}},{"Id":8,"CompanyName":"company1","Address":{"Street":"test","City":"test","State":"test","Zip":"test"}},{"Id":9,"CompanyName":"company1","Address":{"Street":"test","City":"test","State":"test","Zip":"test"}},{"Id":10,"CompanyName":"company1","Address":{"Street":"test","City":"test","State":"test","Zip":"test"}},{"Id":11,"CompanyName":"company1","Address":{"Street":"test","City":"test","State":"test","Zip":"test"}},{"Id":12,"CompanyName":"company1","Address":{"Street":"test","City":"test","State":"test","Zip":"test"}}]